[{"OBJECT_NAME":"ONEWEB-0509","OBJECT_ID":"2022-138Q","EPOCH":"2026-03-14T14:58:51.820032","MEAN_MOTION":13.1972509,"ECCENTRICITY":0.00017396,"INCLINATION":87.9232,"RA_OF_ASC_NODE":323.8013,"ARG_OF_PERICENTER":84.2153,"MEAN_ANOMALY":275.9178,"EPHEMERIS_TYPE":0,"CLASSIFICATION_TYPE":"U","NORAD_CAT_ID":54127,"ELEMENT_SET_NO":999,"REV_AT_EPOCH":16433,"BSTAR":0.00012116536,"MEAN_MOTION_DOT":6.1e-7,"MEAN_MOTION_DDOT":0},{"OBJECT_NAME":"ONEWEB-0510","OBJECT_ID":"2022-138R","EPOCH":"2026-03-14T14:05:17.693376","MEAN_MOTION":13.20769984,"ECCENTRICITY":0.00015492,"INCLINATION":87.9165,"RA_OF_ASC_NODE":293.325,"ARG_OF_PERICENTER":68.2261,"MEAN_ANOMALY":291.9037,"EPHEMERIS_TYPE":0,"CLASSIFICATION_TYPE":"U","NORAD_CAT_ID":54128,"ELEMENT_SET_NO":999,"REV_AT_EPOCH":16679,"BSTAR":-0.00017884253,"MEAN_MOTION_DOT":-6.0e-7,"MEAN_MOTION_DDOT":0},{"OBJECT_NAME":"ONEWEB-0511","OBJECT_ID":"2022-138S","EPOCH":"2026-03-14T14:54:19.189152","MEAN_MOTION":13.19727736,"ECCENTRICITY":0.00010994,"INCLINATION":87.9236,"RA_OF_ASC_NODE":323.8089,"ARG_OF_PERICENTER":93.452,"MEAN_ANOMALY":266.6738,"EPHEMERIS_TYPE":0,"CLASSIFICATION_TYPE":"U","NORAD_CAT_ID":54129,"ELEMENT_SET_NO":999,"REV_AT_EPOCH":16436,"BSTAR":0.002399168,"MEAN_MOTION_DOT":9.74e-6,"MEAN_MOTION_DDOT":0},{"OBJECT_NAME":"ONEWEB-0512","OBJECT_ID":"2022-138T","EPOCH":"2026-03-14T14:42:55.977696","MEAN_MOTION":13.197246,"ECCENTRICITY":0.00016474,"INCLINATION":87.9222,"RA_OF_ASC_NODE":323.8212,"ARG_OF_PERICENTER":93.5413,"MEAN_ANOMALY":266.5908,"EPHEMERIS_TYPE":0,"CLASSIFICATION_TYPE":"U","NORAD_CAT_ID":54130,"ELEMENT_SET_NO":999,"REV_AT_EPOCH":16433,"BSTAR":-0.00014932886,"MEAN_MOTION_DOT":-4.7e-7,"MEAN_MOTION_DDOT":0},{"OBJECT_NAME":"ONEWEB-0513","OBJECT_ID":"2022-138U","EPOCH":"2026-03-14T15:46:43.946112","MEAN_MOTION":13.2026243,"ECCENTRICITY":0.00014198,"INCLINATION":87.9234,"RA_OF_ASC_NODE":323.767,"ARG_OF_PERICENTER":114.9108,"MEAN_ANOMALY":245.2173,"EPHEMERIS_TYPE":0,"CLASSIFICATION_TYPE":"U","NORAD_CAT_ID":54131,"ELEMENT_SET_NO":999,"REV_AT_EPOCH":16424,"BSTAR":-4.1123851e-5,"MEAN_MOTION_DOT":-4.0e-8,"MEAN_MOTION_DDOT":0},{"OBJECT_NAME":"ONEWEB-0514","OBJECT_ID":"2022-138V","EPOCH":"2026-03-14T15:05:40.753824","MEAN_MOTION":13.19724236,"ECCENTRICITY":0.00016562,"INCLINATION":87.9224,"RA_OF_ASC_NODE":323.8072,"ARG_OF_PERICENTER":76.3788,"MEAN_ANOMALY":283.7529,"EPHEMERIS_TYPE":0,"CLASSIFICATION_TYPE":"U","NORAD_CAT_ID":54132,"ELEMENT_SET_NO":999,"REV_AT_EPOCH":16435,"BSTAR":1.2001456e-5,"MEAN_MOTION_DOT":1.8e-7,"MEAN_MOTION_DDOT":0},{"OBJECT_NAME":"ONEWEB-0515","OBJECT_ID":"2022-138W","EPOCH":"2026-03-14T13:47:06.730080","MEAN_MOTION":13.20770062,"ECCENTRICITY":0.00022725,"INCLINATION":87.9169,"RA_OF_ASC_NODE":293.3165,"ARG_OF_PERICENTER":67.0838,"MEAN_ANOMALY":293.0535,"EPHEMERIS_TYPE":0,"CLASSIFICATION_TYPE":"U","NORAD_CAT_ID":54133,"ELEMENT_SET_NO":999,"REV_AT_EPOCH":16681,"BSTAR":0.00011082171,"MEAN_MOTION_DOT":5.8e-7,"MEAN_MOTION_DDOT":0},{"OBJECT_NAME":"ONEWEB-0516","OBJECT_ID":"2022-138X","EPOCH":"2026-03-14T14:29:17.812032","MEAN_MOTION":13.19724639,"ECCENTRICITY":0.00018413,"INCLINATION":87.9219,"RA_OF_ASC_NODE":323.8237,"ARG_OF_PERICENTER":84.3969,"MEAN_ANOMALY":275.7373,"EPHEMERIS_TYPE":0,"CLASSIFICATION_TYPE":"U","NORAD_CAT_ID":54134,"ELEMENT_SET_NO":999,"REV_AT_EPOCH":16435,"BSTAR":-7.0111135e-5,"MEAN_MOTION_DOT":-1.5e-7,"MEAN_MOTION_DDOT":0},{"OBJECT_NAME":"ONEWEB-0517","OBJECT_ID":"2022-138Y","EPOCH":"2026-03-14T15:48:53.792352","MEAN_MOTION":13.19724119,"ECCENTRICITY":0.00014306,"INCLINATION":87.9225,"RA_OF_ASC_NODE":323.8017,"ARG_OF_PERICENTER":77.7566,"MEAN_ANOMALY":282.3727,"EPHEMERIS_TYPE":0,"CLASSIFICATION_TYPE":"U","NORAD_CAT_ID":54135,"ELEMENT_SET_NO":999,"REV_AT_EPOCH":16436,"BSTAR":-9.663318e-5,"MEAN_MOTION_DOT":-2.6e-7,"MEAN_MOTION_DDOT":0},{"OBJECT_NAME":"ONEWEB-0518","OBJECT_ID":"2022-138Z","EPOCH":"2026-03-14T14:27:00.888768","MEAN_MOTION":13.19724567,"ECCENTRICITY":0.00017858,"INCLINATION":87.922,"RA_OF_ASC_NODE":323.8259,"ARG_OF_PERICENTER":86.4649,"MEAN_ANOMALY":273.6688,"EPHEMERIS_TYPE":0,"CLASSIFICATION_TYPE":"U","NORAD_CAT_ID":54136,"ELEMENT_SET_NO":999,"REV_AT_EPOCH":16435,"BSTAR":-0.00013564456,"MEAN_MOTION_DOT":-4.1e-7,"MEAN_MOTION_DDOT":0},{"OBJECT_NAME":"ONEWEB-0519","OBJECT_ID":"2022-138AA","EPOCH":"2026-03-14T15:03:24.750720","MEAN_MOTION":13.19725696,"ECCENTRICITY":0.00014692,"INCLINATION":87.9235,"RA_OF_ASC_NODE":323.801,"ARG_OF_PERICENTER":80.869,"MEAN_ANOMALY":279.2608,"EPHEMERIS_TYPE":0,"CLASSIFICATION_TYPE":"U","NORAD_CAT_ID":54137,"ELEMENT_SET_NO":999,"REV_AT_EPOCH":16436,"BSTAR":0.00028251842,"MEAN_MOTION_DOT":1.26e-6,"MEAN_MOTION_DDOT":0},{"OBJECT_NAME":"ONEWEB-0520","OBJECT_ID":"2022-138AB","EPOCH":"2026-03-14T15:53:27.264768","MEAN_MOTION":13.19723783,"ECCENTRICITY":0.00016107,"INCLINATION":87.9239,"RA_OF_ASC_NODE":323.7995,"ARG_OF_PERICENTER":86.2,"MEAN_ANOMALY":273.9317,"EPHEMERIS_TYPE":0,"CLASSIFICATION_TYPE":"U","NORAD_CAT_ID":54138,"ELEMENT_SET_NO":999,"REV_AT_EPOCH":16435,"BSTAR":0.00061216429,"MEAN_MOTION_DOT":2.58e-6,"MEAN_MOTION_DDOT":0},{"OBJECT_NAME":"ONEWEB-0521","OBJECT_ID":"2022-138AC","EPOCH":"2026-03-14T14:52:02.157024","MEAN_MOTION":13.19724691,"ECCENTRICITY":0.00014935,"INCLINATION":87.9229,"RA_OF_ASC_NODE":323.7926,"ARG_OF_PERICENTER":78.1278,"MEAN_ANOMALY":282.0023,"EPHEMERIS_TYPE":0,"CLASSIFICATION_TYPE":"U","NORAD_CAT_ID":54139,"ELEMENT_SET_NO":999,"REV_AT_EPOCH":16429,"BSTAR":3.4974045e-5,"MEAN_MOTION_DOT":2.7e-7,"MEAN_MOTION_DDOT":0},{"OBJECT_NAME":"ONEWEB-0522","OBJECT_ID":"2022-138AD","EPOCH":"2026-03-14T14:22:27.694560","MEAN_MOTION":13.19724552,"ECCENTRICITY":0.00016806,"INCLINATION":87.9233,"RA_OF_ASC_NODE":323.7981,"ARG_OF_PERICENTER":85.8369,"MEAN_ANOMALY":274.2955,"EPHEMERIS_TYPE":0,"CLASSIFICATION_TYPE":"U","NORAD_CAT_ID":54140,"ELEMENT_SET_NO":999,"REV_AT_EPOCH":16433,"BSTAR":4.2061574e-5,"MEAN_MOTION_DOT":3.0e-7,"MEAN_MOTION_DDOT":0},{"OBJECT_NAME":"ONEWEB-0523","OBJECT_ID":"2022-138AE","EPOCH":"2026-03-14T13:28:55.902432","MEAN_MOTION":13.20770392,"ECCENTRICITY":0.0001746,"INCLINATION":87.9167,"RA_OF_ASC_NODE":293.3337,"ARG_OF_PERICENTER":58.7976,"MEAN_ANOMALY":301.3329,"EPHEMERIS_TYPE":0,"CLASSIFICATION_TYPE":"U","NORAD_CAT_ID":54141,"ELEMENT_SET_NO":999,"REV_AT_EPOCH":16681,"BSTAR":0.00015393935,"MEAN_MOTION_DOT":7.6e-7,"MEAN_MOTION_DDOT":0},{"OBJECT_NAME":"ONEWEB-0524","OBJECT_ID":"2022-138AF","EPOCH":"2026-03-14T15:02:07.047744","MEAN_MOTION":13.20770302,"ECCENTRICITY":0.00024469,"INCLINATION":87.9156,"RA_OF_ASC_NODE":293.32,"ARG_OF_PERICENTER":73.6215,"MEAN_ANOMALY":286.5187,"EPHEMERIS_TYPE":0,"CLASSIFICATION_TYPE":"U","NORAD_CAT_ID":54142,"ELEMENT_SET_NO":999,"REV_AT_EPOCH":16682,"BSTAR":0.00013116272,"MEAN_MOTION_DOT":6.6e-7,"MEAN_MOTION_DDOT":0},{"OBJECT_NAME":"ONEWEB-0525","OBJECT_ID":"2022-138AG","EPOCH":"2026-03-14T14:49:45.861888","MEAN_MOTION":13.19724411,"ECCENTRICITY":0.000181,"INCLINATION":87.9224,"RA_OF_ASC_NODE":323.8088,"ARG_OF_PERICENTER":88.9442,"MEAN_ANOMALY":271.1898,"EPHEMERIS_TYPE":0,"CLASSIFICATION_TYPE":"U","NORAD_CAT_ID":54143,"ELEMENT_SET_NO":999,"REV_AT_EPOCH":16435,"BSTAR":-0.00018164949,"MEAN_MOTION_DOT":-6.0e-7,"MEAN_MOTION_DDOT":0},{"OBJECT_NAME":"ONEWEB-0526","OBJECT_ID":"2022-138AH","EPOCH":"2026-03-14T10:09:59.730336","MEAN_MOTION":13.19724994,"ECCENTRICITY":0.00018001,"INCLINATION":87.9237,"RA_OF_ASC_NODE":323.8418,"ARG_OF_PERICENTER":82.8009,"MEAN_ANOMALY":277.3328,"EPHEMERIS_TYPE":0,"CLASSIFICATION_TYPE":"U","NORAD_CAT_ID":54144,"ELEMENT_SET_NO":999,"REV_AT_EPOCH":16430,"BSTAR":0.00012536544,"MEAN_MOTION_DOT":6.3e-7,"MEAN_MOTION_DDOT":0},{"OBJECT_NAME":"ONEWEB-0529","OBJECT_ID":"2022-138AJ","EPOCH":"2026-03-14T15:42:04.867200","MEAN_MOTION":13.19724526,"ECCENTRICITY":0.00018158,"INCLINATION":87.9225,"RA_OF_ASC_NODE":323.8137,"ARG_OF_PERICENTER":87.369,"MEAN_ANOMALY":272.7651,"EPHEMERIS_TYPE":0,"CLASSIFICATION_TYPE":"U","NORAD_CAT_ID":54145,"ELEMENT_SET_NO":999,"REV_AT_EPOCH":16435,"BSTAR":1.4970681e-5,"MEAN_MOTION_DOT":1.9e-7,"MEAN_MOTION_DDOT":0},{"OBJECT_NAME":"ONEWEB-0531","OBJECT_ID":"2022-138AK","EPOCH":"2026-03-14T14:41:39.337440","MEAN_MOTION":13.20770677,"ECCENTRICITY":0.00020683,"INCLINATION":87.9164,"RA_OF_ASC_NODE":293.3207,"ARG_OF_PERICENTER":60.8693,"MEAN_ANOMALY":299.2648,"EPHEMERIS_TYPE":0,"CLASSIFICATION_TYPE":"U","NORAD_CAT_ID":54146,"ELEMENT_SET_NO":999,"REV_AT_EPOCH":16682,"BSTAR":0.00023171045,"MEAN_MOTION_DOT":1.07e-6,"MEAN_MOTION_DDOT":0},{"OBJECT_NAME":"ONEWEB-0535","OBJECT_ID":"2022-138AL","EPOCH":"2026-03-14T05:34:47.018496","MEAN_MOTION":13.19725137,"ECCENTRICITY":0.00015982,"INCLINATION":87.9231,"RA_OF_ASC_NODE":323.8746,"ARG_OF_PERICENTER":69.1859,"MEAN_ANOMALY":290.9445,"EPHEMERIS_TYPE":0,"CLASSIFICATION_TYPE":"U","NORAD_CAT_ID":54147,"ELEMENT_SET_NO":999,"REV_AT_EPOCH":16431,"BSTAR":6.90319e-5,"MEAN_MOTION_DOT":4.1e-7,"MEAN_MOTION_DDOT":0},{"OBJECT_NAME":"ONEWEB-0536","OBJECT_ID":"2022-138AM","EPOCH":"2026-03-14T14:23:28.556448","MEAN_MOTION":13.20770316,"ECCENTRICITY":0.00022385,"INCLINATION":87.9151,"RA_OF_ASC_NODE":293.3571,"ARG_OF_PERICENTER":61.4865,"MEAN_ANOMALY":298.6493,"EPHEMERIS_TYPE":0,"CLASSIFICATION_TYPE":"U","NORAD_CAT_ID":54148,"ELEMENT_SET_NO":999,"REV_AT_EPOCH":16681,"BSTAR":-6.4453417e-5,"MEAN_MOTION_DOT":-1.3e-7,"MEAN_MOTION_DDOT":0},{"OBJECT_NAME":"ONEWEB-0527","OBJECT_ID":"2022-166A","EPOCH":"2026-03-14T13:12:20.234016","MEAN_MOTION":13.21826681,"ECCENTRICITY":0.00017572,"INCLINATION":87.916,"RA_OF_ASC_NODE":262.8653,"ARG_OF_PERICENTER":92.5662,"MEAN_ANOMALY":267.5673,"EPHEMERIS_TYPE":0,"CLASSIFICATION_TYPE":"U","NORAD_CAT_ID":54642,"ELEMENT_SET_NO":999,"REV_AT_EPOCH":15903,"BSTAR":0.00022562747,"MEAN_MOTION_DOT":1.06e-6,"MEAN_MOTION_DDOT":0}]
